<?xml version="1.0" encoding="UTF-8"?>
<osm version="0.6" generator="CGImap 0.6.0 (31536 thorn-01.openstreetmap.org)" copyright="OpenStreetMap and contributors" attribution="http://www.openstreetmap.org/copyright" license="http://opendatacommons.org/licenses/odbl/1-0/">
 <relation id="3245949" visible="true" version="3" changeset="44092455" timestamp="2016-12-01T17:50:29Z" user="nyuriks" uid="339581">
  <member type="way" ref="240592676" role="outer"/>
  <member type="way" ref="240592689" role="outer"/>
  <member type="way" ref="240592669" role="outer"/>
  <member type="way" ref="243467197" role="outer"/>
  <member type="way" ref="238740216" role="outer"/>
  <member type="way" ref="238740213" role="outer"/>
  <member type="way" ref="238740214" role="outer"/>
  <member type="way" ref="238740215" role="outer"/>
  <tag k="admin_level" v="6"/>
  <tag k="boundary" v="administrative"/>
  <tag k="name" v="谯城区 (Qiaocheng)"/>
  <tag k="name:en" v="Qiaocheng District"/>
  <tag k="name:zh" v="谯城区"/>
  <tag k="name:zh_pinyin" v="Qiáochéng Qū"/>
  <tag k="type" v="boundary"/>
  <tag k="wikidata" v="Q766698"/>
  <tag k="wikipedia" v="en:Qiaocheng District"/>
 </relation>
</osm>
